1 53920U 22119AL  22282.83334491 -.00051970  00000-0 -36756-3 0  9999
2 53920  53.2187 179.3859 0001082  90.2835 131.1826 15.73238741  2776